{
  "type": "FeatureCollection",
  "features": [
    {
      "type": "Feature",
      "properties": {
        "norad_id": 29857,
        "name": "FENGYUN 1C DEB",
        "group": "fengyun-1c-debris",
        "lat": -13.186922074619675,
        "lon": 8.53378632343504,
        "alt_km": 960.0528008456586,
        "timestamp": "2025-12-26T16:33:55.843878+00:00",
        "meta_object_name": "FENGYUN 1C DEB",
        "meta_object_id": "1999-025FB",
        "meta_epoch": "2025-12-24T12:30:00.203616",
        "meta_mean_motion": 13.81919497,
        "meta_eccentricity": 0.01927413,
        "meta_inclination": 98.4222,
        "meta_ra_of_asc_node": 4.605,
        "meta_arg_of_pericenter": 262.1723,
        "meta_mean_anomaly": 95.7515,
        "meta_ephemeris_type": 0,
        "meta_classification_type": "U",
        "meta_norad_cat_id": 29857,
        "meta_element_set_no": 999,
        "meta_rev_at_epoch": 94938,
        "meta_bstar": 0.0012908448,
        "meta_mean_motion_dot": 1.556e-05,
        "meta_mean_motion_ddot": 0,
        "tle_line1": "1 29857U 99025FB  25358.52083569  .00001556  00000+0  12908-2 0  9995",
        "tle_line2": "2 29857  98.4222   4.6050 0192741 262.1723  95.7515 13.81919497949389"
      },
      "geometry": {
        "type": "Point",
        "coordinates": [
          8.53378632343504,
          -13.186922074619675
        ]
      }
    },
    {
      "type": "Feature",
      "properties": {
        "norad_id": 29858,
        "name": "FENGYUN 1C DEB",
        "group": "fengyun-1c-debris",
        "lat": 41.46028518639784,
        "lon": 93.6665546199032,
        "alt_km": 827.7264562983082,
        "timestamp": "2025-12-26T16:33:55.843887+00:00",
        "meta_object_name": "FENGYUN 1C DEB",
        "meta_object_id": "1999-025FC",
        "meta_epoch": "2025-12-25T12:47:50.080992",
        "meta_mean_motion": 13.77815797,
        "meta_eccentricity": 0.0197546,
        "meta_inclination": 99.2127,
        "meta_ra_of_asc_node": 100.7873,
        "meta_arg_of_pericenter": 30.3089,
        "meta_mean_anomaly": 35.444,
        "meta_ephemeris_type": 0,
        "meta_classification_type": "U",
        "meta_norad_cat_id": 29858,
        "meta_element_set_no": 999,
        "meta_rev_at_epoch": 94730,
        "meta_bstar": 0.0010093,
        "meta_mean_motion_dot": 1.125e-05,
        "meta_mean_motion_ddot": 0,
        "tle_line1": "1 29858U 99025FC  25359.53321853  .00001125  00000+0  10093-2 0  9994",
        "tle_line2": "2 29858  99.2127 100.7873 0197546  30.3089  35.4440 13.77815797947303"
      },
      "geometry": {
        "type": "Point",
        "coordinates": [
          93.6665546199032,
          41.46028518639784
        ]
      }
    },
    {
      "type": "Feature",
      "properties": {
        "norad_id": 29859,
        "name": "FENGYUN 1C DEB",
        "group": "fengyun-1c-debris",
        "lat": 52.03027073869488,
        "lon": 24.484065971111065,
        "alt_km": 831.7966981214831,
        "timestamp": "2025-12-26T16:33:55.843897+00:00",
        "meta_object_name": "FENGYUN 1C DEB",
        "meta_object_id": "1999-025FD",
        "meta_epoch": "2025-12-26T01:57:27.324000",
        "meta_mean_motion": 13.74103723,
        "meta_eccentricity": 0.02943618,
        "meta_inclination": 98.3359,
        "meta_ra_of_asc_node": 193.124,
        "meta_arg_of_pericenter": 176.8779,
        "meta_mean_anomaly": 183.4301,
        "meta_ephemeris_type": 0,
        "meta_classification_type": "U",
        "meta_norad_cat_id": 29859,
        "meta_element_set_no": 999,
        "meta_rev_at_epoch": 94163,
        "meta_bstar": 0.0020952023,
        "meta_mean_motion_dot": 2.661e-05,
        "meta_mean_motion_ddot": 0,
        "tle_line1": "1 29859U 99025FD  25360.08156625  .00002661  00000+0  20952-2 0  9991",
        "tle_line2": "2 29859  98.3359 193.1240 0294361 176.8779 183.4301 13.74103723941636"
      },
      "geometry": {
        "type": "Point",
        "coordinates": [
          24.484065971111065,
          52.03027073869488
        ]
      }
    },
    {
      "type": "Feature",
      "properties": {
        "norad_id": 29860,
        "name": "FENGYUN 1C DEB",
        "group": "fengyun-1c-debris",
        "lat": 81.16930488955656,
        "lon": -44.10547839944235,
        "alt_km": 1093.0335938989301,
        "timestamp": "2025-12-26T16:33:55.843906+00:00",
        "meta_object_name": "FENGYUN 1C DEB",
        "meta_object_id": "1999-025FE",
        "meta_epoch": "2025-12-26T02:29:47.433408",
        "meta_mean_motion": 13.77598649,
        "meta_eccentricity": 0.02215503,
        "meta_inclination": 98.617,
        "meta_ra_of_asc_node": 32.7906,
        "meta_arg_of_pericenter": 307.0407,
        "meta_mean_anomaly": 113.8463,
        "meta_ephemeris_type": 0,
        "meta_classification_type": "U",
        "meta_norad_cat_id": 29860,
        "meta_element_set_no": 999,
        "meta_rev_at_epoch": 94323,
        "meta_bstar": 0.0022482775,
        "meta_mean_motion_dot": 2.648e-05,
        "meta_mean_motion_ddot": 0,
        "tle_line1": "1 29860U 99025FE  25360.10402122  .00002648  00000+0  22483-2 0  9998",
        "tle_line2": "2 29860  98.6170  32.7906 0221550 307.0407 113.8463 13.77598649943237"
      },
      "geometry": {
        "type": "Point",
        "coordinates": [
          -44.10547839944235,
          81.16930488955656
        ]
      }
    },
    {
      "type": "Feature",
      "properties": {
        "norad_id": 29865,
        "name": "FENGYUN 1C DEB",
        "group": "fengyun-1c-debris",
        "lat": 51.322988690403065,
        "lon": -98.26900435991787,
        "alt_km": 557.7889962846139,
        "timestamp": "2025-12-26T16:33:55.843915+00:00",
        "meta_object_name": "FENGYUN 1C DEB",
        "meta_object_id": "1999-025FK",
        "meta_epoch": "2025-12-25T17:46:48.495648",
        "meta_mean_motion": 14.82732588,
        "meta_eccentricity": 0.01167524,
        "meta_inclination": 98.9206,
        "meta_ra_of_asc_node": 271.9884,
        "meta_arg_of_pericenter": 100.4162,
        "meta_mean_anomaly": 288.0981,
        "meta_ephemeris_type": 0,
        "meta_classification_type": "U",
        "meta_norad_cat_id": 29865,
        "meta_element_set_no": 999,
        "meta_rev_at_epoch": 951,
        "meta_bstar": 0.00066226419,
        "meta_mean_motion_dot": 5.958e-05,
        "meta_mean_motion_ddot": 0,
        "tle_line1": "1 29865U 99025FK  25359.74083907  .00005958  00000+0  66226-3 0  9998",
        "tle_line2": "2 29865  98.9206 271.9884 0116752 100.4162 288.0981 14.82732588  9510"
      },
      "geometry": {
        "type": "Point",
        "coordinates": [
          -98.26900435991787,
          51.322988690403065
        ]
      }
    },
    {
      "type": "Feature",
      "properties": {
        "norad_id": 29866,
        "name": "FENGYUN 1C DEB",
        "group": "fengyun-1c-debris",
        "lat": -22.04257881425313,
        "lon": -10.621957975633748,
        "alt_km": 819.0103055674126,
        "timestamp": "2025-12-26T16:33:55.843924+00:00",
        "meta_object_name": "FENGYUN 1C DEB",
        "meta_object_id": "1999-025FL",
        "meta_epoch": "2025-12-26T05:15:33.193152",
        "meta_mean_motion": 14.64256452,
        "meta_eccentricity": 0.01952181,
        "meta_inclination": 98.0386,
        "meta_ra_of_asc_node": 345.6376,
        "meta_arg_of_pericenter": 172.2358,
        "meta_mean_anomaly": 203.2871,
        "meta_ephemeris_type": 0,
        "meta_classification_type": "U",
        "meta_norad_cat_id": 29866,
        "meta_element_set_no": 999,
        "meta_rev_at_epoch": 524,
        "meta_bstar": 0.00022367756,
        "meta_mean_motion_dot": 1.5e-05,
        "meta_mean_motion_ddot": 0,
        "tle_line1": "1 29866U 99025FL  25360.21913418  .00001500  00000+0  22368-3 0  9990",
        "tle_line2": "2 29866  98.0386 345.6376 0195218 172.2358 203.2871 14.64256452  5248"
      },
      "geometry": {
        "type": "Point",
        "coordinates": [
          -10.621957975633748,
          -22.04257881425313
        ]
      }
    },
    {
      "type": "Feature",
      "properties": {
        "norad_id": 29868,
        "name": "FENGYUN 1C DEB",
        "group": "fengyun-1c-debris",
        "lat": 8.153378440439326,
        "lon": -132.5868108263084,
        "alt_km": 749.9139083320233,
        "timestamp": "2025-12-26T16:33:55.843933+00:00",
        "meta_object_name": "FENGYUN 1C DEB",
        "meta_object_id": "1999-025FN",
        "meta_epoch": "2025-12-26T01:29:38.768064",
        "meta_mean_motion": 14.78594244,
        "meta_eccentricity": 0.01953373,
        "meta_inclination": 97.9482,
        "meta_ra_of_asc_node": 45.6457,
        "meta_arg_of_pericenter": 320.8312,
        "meta_mean_anomaly": 111.3955,
        "meta_ephemeris_type": 0,
        "meta_classification_type": "U",
        "meta_norad_cat_id": 29868,
        "meta_element_set_no": 999,
        "meta_rev_at_epoch": 492,
        "meta_bstar": 0.00065173866,
        "meta_mean_motion_dot": 6.517e-05,
        "meta_mean_motion_ddot": 0,
        "tle_line1": "1 29868U 99025FN  25360.06225426  .00006517  00000+0  65174-3 0  9995",
        "tle_line2": "2 29868  97.9482  45.6457 0195337 320.8312 111.3955 14.78594244  4920"
      },
      "geometry": {
        "type": "Point",
        "coordinates": [
          -132.5868108263084,
          8.153378440439326
        ]
      }
    }
  ]
}